STARLINK-32706          
1 62308U 24239H   26068.58161244  .00015564  00000+0  53663-3 0  9998
2 62308  53.1590 194.6839 0001231 109.9886 250.1247 15.30193100 69360
ION SCV-017             
1 63230U 25052W   26068.71648816  .00006457  00000+0  24539-3 0  9998
2 63230  97.4016 324.7516 0023746  44.9875 315.3282 15.26881798 54851
